EUTELSAT 7A             
1 28187U 04008A   25268.19150833  .00000107  00000+0  00000+0 0  9997
2 28187   5.1527  75.1587 0000941  74.6002 144.2588  1.00270183 78698
EUTELSAT 174A           
1 28924U 05052A   25268.24558674  .00000013  00000+0  00000+0 0  9993
2 28924   3.5431  79.8048 0006072 102.7461  84.2311  1.00269928 49677
EUTELSAT HOTBIRD 13B    
1 29270U 06032A   25268.22565515  .00000158  00000+0  00000+0 0  9997
2 29270   0.9716  85.1383 0004045  91.2103 302.2731  1.00273251 44650
EUTELSAT HOTBIRD 13C    
1 33459U 08065A   25268.28797477 -.00000097  00000+0  00000+0 0  9992
2 33459   2.2640  82.3242 0004833 124.1134 249.1054  1.00272256 44698
EUTELSAT 36B            
1 36101U 09065A   25268.22912183  .00000114  00000+0  00000+0 0  9996
2 36101   0.0622   2.5493 0005842 186.7384 308.0221  1.00275100 58052
EUTELSAT KA-SAT 9A      
1 37258U 10069A   25268.07816398  .00000064  00000+0  00000+0 0  9994
2 37258   0.0568 325.4927 0002840 186.4905 249.3276  1.00270632 41341
EUTELSAT 7 WEST A       
1 37816U 11051A   25268.28901477 -.00000058  00000+0  00000+0 0  9996
2 37816   0.0794  30.9778 0005974 156.7877 273.3299  1.00272905 51239
EUTELSAT 16A            
1 37836U 11057A   25268.07955066  .00000106  00000+0  00000+0 0  9997
2 37836   0.0642 351.3999 0005356 193.3126 224.0876  1.00271852  4665
